[{"OBJECT_NAME":"DAMPE","OBJECT_ID":"2015-078A","EPOCH":"2026-03-09T23:55:00.527232","MEAN_MOTION":15.30502084,"ECCENTRICITY":0.00138005,"INCLINATION":97.4588,"RA_OF_ASC_NODE":73.9866,"ARG_OF_PERICENTER":70.6942,"MEAN_ANOMALY":289.579,"EPHEMERIS_TYPE":0,"CLASSIFICATION_TYPE":"U","NORAD_CAT_ID":41173,"ELEMENT_SET_NO":999,"REV_AT_EPOCH":56937,"BSTAR":9.1158173e-5,"MEAN_MOTION_DOT":2.617e-5,"MEAN_MOTION_DDOT":0},{"OBJECT_NAME":"STARLINK-35231","OBJECT_ID":"2025-221AC","EPOCH":"2026-03-09T08:16:26.114880","MEAN_MOTION":15.30192437,"ECCENTRICITY":0.00012111,"INCLINATION":53.1583,"RA_OF_ASC_NODE":90.4348,"ARG_OF_PERICENTER":83.8226,"MEAN_ANOMALY":276.2913,"EPHEMERIS_TYPE":0,"CLASSIFICATION_TYPE":"U","NORAD_CAT_ID":65849,"ELEMENT_SET_NO":999,"REV_AT_EPOCH":2602,"BSTAR":0.00069694266,"MEAN_MOTION_DOT":0.00020334,"MEAN_MOTION_DDOT":0}]
